STARLINK-31269          
1 58844U 24017U   26068.84994161 -.00000033  00000+0  10997-4 0  9993
2 58844  53.1600 293.7026 0001055  88.4510 271.6611 15.30193277118790
XCUBE-1                 
1 62400U 24247Z   26068.48297321  .00009773  00000+0  36224-3 0  9994
2 62400  44.9938 117.7807 0005235 331.1499  28.9094 15.27910558 67702
